TEVEL2-5                
1 63214U 25052E   26068.96660006  .00021339  00000+0  71765-3 0  9991
2 63214  97.4013 325.3677 0004700  95.3936 264.7842 15.30817434 54919
STARLINK-34870          
1 65370U 25190V   26068.54461421  .00029639  00000+0  10086-2 0  9992
2 65370  53.1593 168.8039 0001363 100.7212 259.3943 15.30206961 29267
